[{"OBJECT_NAME":"NUSAT-48 (HENRIETTA LEAVITT)","OBJECT_ID":"2024-149AG","EPOCH":"2026-03-09T19:19:17.269536","MEAN_MOTION":15.29812597,"ECCENTRICITY":0.00027538,"INCLINATION":97.3923,"RA_OF_ASC_NODE":150.8264,"ARG_OF_PERICENTER":263.3026,"MEAN_ANOMALY":96.7901,"EPHEMERIS_TYPE":0,"CLASSIFICATION_TYPE":"U","NORAD_CAT_ID":60498,"ELEMENT_SET_NO":999,"REV_AT_EPOCH":8694,"BSTAR":0.00045211745,"MEAN_MOTION_DOT":0.00012988,"MEAN_MOTION_DDOT":0},{"OBJECT_NAME":"STARLINK-32684","OBJECT_ID":"2024-229C","EPOCH":"2026-03-09T22:40:51.670272","MEAN_MOTION":15.27598065,"ECCENTRICITY":0.0002292,"INCLINATION":43.0032,"RA_OF_ASC_NODE":268.9966,"ARG_OF_PERICENTER":265.5822,"MEAN_ANOMALY":94.4768,"EPHEMERIS_TYPE":0,"CLASSIFICATION_TYPE":"U","NORAD_CAT_ID":62194,"ELEMENT_SET_NO":999,"REV_AT_EPOCH":7178,"BSTAR":0.001086571,"MEAN_MOTION_DOT":0.00029776,"MEAN_MOTION_DDOT":0}]
